start=new Date('2022-08-18T00:00:00.000Z').valueOf();
sats=[{"MEAN_ANOMALY":"81.3665","ARG_OF_PERICENTER":"35.0655","PERIAPSIS":"405.355","PERIOD":"92.694","TLE_LINE1":"1 53148U 22083S   22229.58334491 -.01114859  00000-0 -19087-1 0  9997","REV_AT_EPOCH":"130","FILE":"3538809","RCS_SIZE":"LARGE","MEAN_ELEMENT_THEORY":"SGP4","RA_OF_ASC_NODE":"254.1028","DECAY_DATE":null,"ECCENTRICITY":"0.00017440","OBJECT_ID":"2022-083S","MEAN_MOTION_DOT":"-0.01114859","INCLINATION":"53.2172","GP_ID":"210409045","BSTAR":"-0.01908700000000","OBJECT_NAME":"STARLINK-4066","NORAD_CAT_ID":"53148","REF_FRAME":"TEME","SITE":"AFETR","COUNTRY_CODE":"US","OBJECT_TYPE":"PAYLOAD","TIME_SYSTEM":"UTC","APOAPSIS":"407.721","ELEMENT_SET_NO":"999","CLASSIFICATION_TYPE":"U","TLE_LINE2":"2 53148  53.2172 254.1028 0001744  35.0655  81.3665 15.53493316  1308","EPOCH":"2022-08-17T14:00:01.000224","CENTER_NAME":"EARTH","EPHEMERIS_TYPE":"0","MEAN_MOTION_DDOT":"0.0000000000000","LAUNCH_DATE":"2022-07-17","SEMIMAJOR_AXIS":"6784.673","MEAN_MOTION":"15.53493316"},{"MEAN_MOTION":"15.73220668","SEMIMAJOR_AXIS":"6727.836","LAUNCH_DATE":"2022-07-17","MEAN_MOTION_DDOT":"0.0000000000000","EPHEMERIS_TYPE":"0","CENTER_NAME":"EARTH","CLASSIFICATION_TYPE":"U","ELEMENT_SET_NO":"999","EPOCH":"2022-08-17T14:00:01.000224","TLE_LINE2":"2 53149  53.2144 253.4437 0003196  16.2192  40.2931 15.73220668  1304","OBJECT_TYPE":"PAYLOAD","APOAPSIS":"351.851","TIME_SYSTEM":"UTC","SITE":"AFETR","COUNTRY_CODE":"US","NORAD_CAT_ID":"53149","REF_FRAME":"TEME","OBJECT_NAME":"STARLINK-4021","BSTAR":"-0.00029506000000","MEAN_MOTION_DOT":"-0.00041876","OBJECT_ID":"2022-083T","INCLINATION":"53.2144","GP_ID":"210409317","ECCENTRICITY":"0.00031960","DECAY_DATE":null,"MEAN_ELEMENT_THEORY":"SGP4","RCS_SIZE":"LARGE","RA_OF_ASC_NODE":"253.4437","FILE":"3538809","REV_AT_EPOCH":"130","MEAN_ANOMALY":"40.2931","TLE_LINE1":"1 53149U 22083T   22229.58334491 -.00041876  00000-0 -29506-3 0  9994","PERIAPSIS":"347.551","ARG_OF_PERICENTER":"16.2192","PERIOD":"91.532"},{"MEAN_MOTION_DDOT":"0.0000000000000","LAUNCH_DATE":"2022-07-17","SEMIMAJOR_AXIS":"6727.748","MEAN_MOTION":"15.73251753","COUNTRY_CODE":"US","SITE":"AFETR","APOAPSIS":"351.740","TIME_SYSTEM":"UTC","OBJECT_TYPE":"PAYLOAD","TLE_LINE2":"2 53150  53.2141 253.0447 0003162  11.3058 150.2243 15.73251753  5547","EPOCH":"2022-08-17T16:00:00.999936","ELEMENT_SET_NO":"999","CLASSIFICATION_TYPE":"U","EPHEMERIS_TYPE":"0","CENTER_NAME":"EARTH","ECCENTRICITY":"0.00031620","INCLINATION":"53.2141","GP_ID":"210382184","MEAN_MOTION_DOT":"-0.00084690","OBJECT_ID":"2022-083U","OBJECT_NAME":"STARLINK-4038","BSTAR":"-0.00060353000000","REF_FRAME":"TEME","NORAD_CAT_ID":"53150","TLE_LINE1":"1 53150U 22083U   22229.66667824 -.00084690  00000-0 -60353-3 0  9990","PERIOD":"91.530","PERIAPSIS":"347.485","ARG_OF_PERICENTER":"11.3058","MEAN_ANOMALY":"150.2243","FILE":"3538727","REV_AT_EPOCH":"554","RA_OF_ASC_NODE":"253.0447","MEAN_ELEMENT_THEORY":"SGP4","RCS_SIZE":"LARGE","DECAY_DATE":null},{"SITE":"AFETR","COUNTRY_CODE":"US","OBJECT_TYPE":"PAYLOAD","APOAPSIS":"351.859","TIME_SYSTEM":"UTC","ELEMENT_SET_NO":"999","CLASSIFICATION_TYPE":"U","TLE_LINE2":"2 53151  53.2151 253.4593 0003012  11.3824  39.7475 15.73174457  1303","EPOCH":"2022-08-17T14:00:01.000224","EPHEMERIS_TYPE":"0","CENTER_NAME":"EARTH","MEAN_MOTION_DDOT":"0.0000000000000","LAUNCH_DATE":"2022-07-17","SEMIMAJOR_AXIS":"6727.968","MEAN_MOTION":"15.73174457","MEAN_ANOMALY":"39.7475","TLE_LINE1":"1 53151U 22083V   22229.58334491  .00060527  00000-0  43298-3 0  9993","PERIOD":"91.535","PERIAPSIS":"347.807","ARG_OF_PERICENTER":"11.3824","FILE":"3538809","REV_AT_EPOCH":"130","MEAN_ELEMENT_THEORY":"SGP4","RCS_SIZE":"LARGE","RA_OF_ASC_NODE":"253.4593","DECAY_DATE":null,"ECCENTRICITY":"0.00030120","MEAN_MOTION_DOT":"0.00060527","OBJECT_ID":"2022-083V","INCLINATION":"53.2151","GP_ID":"210408773","OBJECT_NAME":"STARLINK-4040","BSTAR":"0.00043298000000","NORAD_CAT_ID":"53151","REF_FRAME":"TEME"},{"BSTAR":"0.00042608000000","OBJECT_NAME":"STARLINK-4045","REF_FRAME":"TEME","NORAD_CAT_ID":"53152","ECCENTRICITY":"0.00032870","GP_ID":"210408637","INCLINATION":"53.2150","OBJECT_ID":"2022-083W","MEAN_MOTION_DOT":"0.00059561","RA_OF_ASC_NODE":"253.4617","RCS_SIZE":"LARGE","MEAN_ELEMENT_THEORY":"SGP4","DECAY_DATE":null,"PERIAPSIS":"347.607","ARG_OF_PERICENTER":"13.0912","PERIOD":"91.534","TLE_LINE1":"1 53152U 22083W   22229.58334491  .00059561  00000-0  42608-3 0  9994","MEAN_ANOMALY":"36.8328","REV_AT_EPOCH":"130","FILE":"3538809","SEMIMAJOR_AXIS":"6727.953","MEAN_MOTION":"15.73179610","MEAN_MOTION_DDOT":"0.0000000000000","LAUNCH_DATE":"2022-07-17","TLE_LINE2":"2 53152  53.2150 253.4617 0003287  13.0912  36.8328 15.73179610  1302","EPOCH":"2022-08-17T14:00:01.000224","CLASSIFICATION_TYPE":"U","ELEMENT_SET_NO":"999","EPHEMERIS_TYPE":"0","CENTER_NAME":"EARTH","COUNTRY_CODE":"US","SITE":"AFETR","APOAPSIS":"352.030","TIME_SYSTEM":"UTC","OBJECT_TYPE":"PAYLOAD"},{"FILE":"3538727","REV_AT_EPOCH":"554","MEAN_ANOMALY":"153.7938","TLE_LINE1":"1 53153U 22083X   22229.66667824 -.00105290  00000-0 -75351-3 0  9997","ARG_OF_PERICENTER":"10.1661","PERIAPSIS":"347.598","PERIOD":"91.531","DECAY_DATE":null,"MEAN_ELEMENT_THEORY":"SGP4","RCS_SIZE":"LARGE","RA_OF_ASC_NODE":"253.0435","MEAN_MOTION_DOT":"-0.00105290","OBJECT_ID":"2022-083X","GP_ID":"210382692","INCLINATION":"53.2148","ECCENTRICITY":"0.00030250","NORAD_CAT_ID":"53153","REF_FRAME":"TEME","OBJECT_NAME":"STARLINK-4098","BSTAR":"-0.00075351000000","OBJECT_TYPE":"PAYLOAD","TIME_SYSTEM":"UTC","APOAPSIS":"351.669","SITE":"AFETR","COUNTRY_CODE":"US","CENTER_NAME":"EARTH","EPHEMERIS_TYPE":"0","ELEMENT_SET_NO":"999","CLASSIFICATION_TYPE":"U","EPOCH":"2022-08-17T16:00:00.999936","TLE_LINE2":"2 53153  53.2148 253.0435 0003025  10.1661 153.7938 15.73244444  5547","LAUNCH_DATE":"2022-07-17","MEAN_MOTION_DDOT":"0.0000000000000","MEAN_MOTION":"15.73244444","SEMIMAJOR_AXIS":"6727.768"},{"ECCENTRICITY":"0.00029370","INCLINATION":"53.2135","GP_ID":"210408501","OBJECT_ID":"2022-083Y","MEAN_MOTION_DOT":"-0.00016396","OBJECT_NAME":"STARLINK-4077","BSTAR":"-0.00011250000000","REF_FRAME":"TEME","NORAD_CAT_ID":"53154","TLE_LINE1":"1 53154U 22083Y   22229.58334491 -.00016396  00000-0 -11250-3 0  9996","PERIOD":"91.532","PERIAPSIS":"347.737","ARG_OF_PERICENTER":"14.2960","MEAN_ANOMALY":"36.2286","FILE":"3538809","REV_AT_EPOCH":"130","RA_OF_ASC_NODE":"253.4530","MEAN_ELEMENT_THEORY":"SGP4","RCS_SIZE":"LARGE","DECAY_DATE":null,"MEAN_MOTION_DDOT":"0.0000000000000","LAUNCH_DATE":"2022-07-17","SEMIMAJOR_AXIS":"6727.848","MEAN_MOTION":"15.73216720","COUNTRY_CODE":"US","SITE":"AFETR","APOAPSIS":"351.688","TIME_SYSTEM":"UTC","OBJECT_TYPE":"PAYLOAD","TLE_LINE2":"2 53154  53.2135 253.4530 0002937  14.2960  36.2286 15.73216720  1309","EPOCH":"2022-08-17T14:00:01.000224","ELEMENT_SET_NO":"999","CLASSIFICATION_TYPE":"U","CENTER_NAME":"EARTH","EPHEMERIS_TYPE":"0"},{"REF_FRAME":"TEME","NORAD_CAT_ID":"53155","OBJECT_NAME":"STARLINK-4088","BSTAR":"-0.00078732000000","GP_ID":"210382683","INCLINATION":"53.2147","OBJECT_ID":"2022-083Z","MEAN_MOTION_DOT":"-0.00110045","ECCENTRICITY":"0.00043580","DECAY_DATE":null,"RA_OF_ASC_NODE":"253.0388","MEAN_ELEMENT_THEORY":"SGP4","RCS_SIZE":"LARGE","FILE":"3538727","REV_AT_EPOCH":"554","TLE_LINE1":"1 53155U 22083Z   22229.66667824 -.00110045  00000-0 -78732-3 0  9999","ARG_OF_PERICENTER":"7.2487","PERIAPSIS":"346.655","PERIOD":"91.530","MEAN_ANOMALY":"158.4560","MEAN_MOTION":"15.73260859","SEMIMAJOR_AXIS":"6727.722","LAUNCH_DATE":"2022-07-17","MEAN_MOTION_DDOT":"0.0000000000000","EPHEMERIS_TYPE":"0","CENTER_NAME":"EARTH","EPOCH":"2022-08-17T16:00:00.999936","TLE_LINE2":"2 53155  53.2147 253.0388 0004358   7.2487 158.4560 15.73260859  5549","CLASSIFICATION_TYPE":"U","ELEMENT_SET_NO":"999","APOAPSIS":"352.519","TIME_SYSTEM":"UTC","OBJECT_TYPE":"PAYLOAD","COUNTRY_CODE":"US","SITE":"AFETR"},{"OBJECT_TYPE":"PAYLOAD","TIME_SYSTEM":"UTC","APOAPSIS":"351.734","SITE":"AFETR","COUNTRY_CODE":"US","CENTER_NAME":"EARTH","EPHEMERIS_TYPE":"0","ELEMENT_SET_NO":"999","CLASSIFICATION_TYPE":"U","TLE_LINE2":"2 53156  53.2147 253.0403 0003142  17.5071 147.6360 15.73248982  5542","EPOCH":"2022-08-17T16:00:00.999936","LAUNCH_DATE":"2022-07-17","MEAN_MOTION_DDOT":"0.0000000000000","MEAN_MOTION":"15.73248982","SEMIMAJOR_AXIS":"6727.756","FILE":"3538727","REV_AT_EPOCH":"554","MEAN_ANOMALY":"147.6360","TLE_LINE1":"1 53156U 22083AA  22229.66667824 -.00093698  00000-0 -66899-3 0  9995","PERIAPSIS":"347.507","ARG_OF_PERICENTER":"17.5071","PERIOD":"91.530","DECAY_DATE":null,"MEAN_ELEMENT_THEORY":"SGP4","RCS_SIZE":"LARGE","RA_OF_ASC_NODE":"253.0403","OBJECT_ID":"2022-083AA","MEAN_MOTION_DOT":"-0.00093698","INCLINATION":"53.2147","GP_ID":"210382691","ECCENTRICITY":"0.00031420","NORAD_CAT_ID":"53156","REF_FRAME":"TEME","OBJECT_NAME":"STARLINK-4087","BSTAR":"-0.00066899000000"},{"OBJECT_TYPE":"PAYLOAD","APOAPSIS":"351.828","TIME_SYSTEM":"UTC","SITE":"AFETR","COUNTRY_CODE":"US","EPHEMERIS_TYPE":"0","CENTER_NAME":"EARTH","ELEMENT_SET_NO":"999","CLASSIFICATION_TYPE":"U","TLE_LINE2":"2 53157  53.2149 253.4502 0003129  14.5173  40.2018 15.73212984  1305","EPOCH":"2022-08-17T14:00:01.000224","LAUNCH_DATE":"2022-07-17","MEAN_MOTION_DDOT":"0.0000000000000","MEAN_MOTION":"15.73212984","SEMIMAJOR_AXIS":"6727.858","REV_AT_EPOCH":"130","FILE":"3538809","MEAN_ANOMALY":"40.2018","ARG_OF_PERICENTER":"14.5173","PERIAPSIS":"347.618","PERIOD":"91.532","TLE_LINE1":"1 53157U 22083AB  22229.58334491 -.00018027  00000-0 -12417-3 0  9998","DECAY_DATE":null,"RCS_SIZE":"LARGE","MEAN_ELEMENT_THEORY":"SGP4","RA_OF_ASC_NODE":"253.4502","MEAN_MOTION_DOT":"-0.00018027","OBJECT_ID":"2022-083AB","GP_ID":"210409318","INCLINATION":"53.2149","ECCENTRICITY":"0.00031290","NORAD_CAT_ID":"53157","REF_FRAME":"TEME","BSTAR":"-0.00012417000000","OBJECT_NAME":"STARLINK-4093"}];
